#dP2021  8 14  0  0  0.00000000      96 __u+U ITR00 FIT  IAC
## 2170 518400.00000000   900.00000000 59440 0.0000000000000
+  126   C01C02C04C05C06C07C08C09C10C11C12C13C14C16C19C20C21
+        C22C23C24C25C26C27C28C29C30C32C33C34C35C36C37C38C39
+        C40C41C42C43C44C45C46C59C60E01E02E03E04E05E07E08E09
+        E11E12E13E14E15E18E19E21E24E25E26E27E30E31E33E36G01
+        G02G03G04G05G06G07G08G09G10G12G13G14G15G16G17G18G19
+        G20G21G22G23G24G25G26G27G28G29G30G31G32J01J02J03J07
+        R01R02R03R04R05R06R07R08R09R10R11R12R13R14R15R16R17
+        R18R19R20R21R22R23R24  0  0  0  0  0  0  0  0  0  0
++        13 12 13 12  9  0  9  9  9  9  9  9  9  9  7  7  7
++         7  7  7  7  7  7  7  7  7  7  7  7  8  7  7  8  8
++         0  7  8  7  8  8  7 15 12  4  5  4  4  4  4  4  4
++         5  4  4  4  4  4  4  4  5  5  4  4  4  4  4  6  3
++         4  4  4  4  3  4  4  4  4  3  4  3  4  4  4  4  4
++         4  4  4  4  4  3  4  4  4  4  4  4  3  8  8  8  0
++         7  6  6  6  6 13  6  6  6 13  8  6  7  6  6  7  6
++         6  7  7  6  7 13  6  0  0  0  0  0  0  0  0  0  0
%c M  cc GPS ccc cccc cccc cccc cccc ccccc ccccc ccccc ccccc
%c cc cc ccc ccc cccc cccc cccc cccc ccccc ccccc ccccc ccccc
%f  0.0000000  0.000000000  0.00000000000  0.000000000000000
%f  0.0000000  0.000000000  0.00000000000  0.000000000000000
%i    0    0    0    0      0      0      0      0         0
%i    0    0    0    0      0      0      0      0         0
/* INFORMATION & ANALYSIS CENTER (IAC)            RAPID DATA
/* S/V CLOCKS ARE ALIGNED TO GNSS TIME                      
/* G:C1WC2W R:C1PC2P E:C1XC5X C:C2IC6I J:C1CC2S             
/* PCV:IGS14_2163 OL/AL:FES2004  NONE     YN ORB:CoN CLK:CoN
*  2021 08 14 10 30  0.00000000
PC01 -34371.262237  24407.743768   -169.110030   -175.299618
PC02   4339.635996  41977.457694    795.905185    423.510327
PC04 -39653.836155  14340.722455   -498.711520   -245.385747
PC05  21859.401608  36054.784583   1170.935139     -3.041468
PC06   -690.204360  33817.333223  25277.554650    756.313736
PC07      0.000000      0.000000      0.000000 999999.999999
PC08 -19320.382243  37227.924192   -763.406826   -921.043361
PC09   6271.252463  37949.939767  18090.674049    -26.099492
PC10  -7036.370570  26845.427659 -31579.365354     -8.804525
PC11 -17103.772077  -1992.834859 -21914.585194    516.066958
PC12 -17506.596929 -19227.877067 -10137.641812    782.808396
PC13  -9197.602010  38830.458583  13306.427624    373.037928
PC14 -27682.210276   1628.056980   3424.422773    721.823406
PC16  -2731.965511  31955.700624  27618.513436   -861.679045
PC19  23723.963023  -7896.683633 -12350.542254    946.434600
PC20  27301.276088   3719.083632   4324.410238   -820.255577
PC21 -14720.068293 -13760.362834 -19303.958797   -940.693387
PC22   6238.074479 -15341.454723 -22458.330590   -950.667797
PC23 -10304.452612  25114.923207  -6454.118430   -961.928660
PC24 -17170.261885  -2169.046145  21889.592851   -964.337972
PC25 -19056.272153  17493.325163  10443.767863   -870.541995
PC26  -5966.843241 -18282.406235  20229.367777    864.594829
PC27  13583.621938  24349.605041   1266.479167    580.679665
PC28    123.967325  23299.250334 -15350.931400    -38.695766
PC29  13066.547875  -9101.585821  22906.293481    433.149223
PC30  19493.510833  10941.278882  16705.998652    477.384758
PC32  14737.891559  13691.787303  19346.162791   -931.297791
PC33 -23754.597040   8005.153862  12285.436976   -957.149707
PC34 -19461.401285 -10141.622811 -17240.969079   -605.361847
PC35   -575.696998 -23113.475139  15596.985795   -140.299927
PC36  19527.177487 -16776.632114 -10736.338329   -743.439023
PC37   4786.376258  19049.934124 -19790.850360   -861.637122
PC38 -17639.851702  38187.397186   1091.648706    168.493482
PC39  -6077.684926  28172.275506  30821.467349     32.738254
PC40      0.000000      0.000000      0.000000 999999.999999
PC41  -6607.766505  15360.672594  22385.579481   -960.648409
PC42 -27130.781072  -4181.765412  -5035.295953   -932.903789
PC43 -13544.497941   8546.151357 -22863.518887   -867.271261
PC44 -14319.956972 -23909.650283  -1108.168322    340.326956
PC45  10154.661649 -25137.501314   6666.519842    520.242830
PC46  17584.915118    837.474336 -21645.304927    132.739411
PC59 -32276.196998  27104.699910    473.994443     -0.850039
PC60   7272.089708  41511.262638  -1142.748744     -1.108514
PE01  26797.609247 -11367.899774  -5362.757751  -1171.381936
PE02 -26782.413369  11448.255620   5249.827739    239.816324
PE03 -23364.434489   1452.794056  18124.323201   -463.551254
PE04   7083.949110 -15590.723096 -24138.358287   -834.724281
PE05 -26173.622324 -13764.381828   1364.752094   -257.360877
PE07  13693.316879  20791.166763  16007.790528   -573.625353
PE08  -6587.919589  15685.006955  24223.404175   5954.313780
PE09 -14038.868420 -20638.739450 -15920.876391   5566.571398
PE11  -5421.857392 -28063.579846  -7695.555088   5579.516334
PE12   7298.755323 -26165.166365  11740.511946   5061.040865
PE13   5189.644422  28224.746342   7246.235167    420.258177
PE14  20335.881603  12273.811612   5962.557326  -1535.066704
PE15  -7173.265937  26198.629836 -11759.349675    798.025282
PE18 -26470.127446  -5809.749934 -17216.853941  -1683.546412
PE19  24476.943218    576.672562 -16629.287176    351.898757
PE21  21318.639983   3394.341846 -20245.044182   -681.930214
PE24  -2220.640131 -17410.496926  23833.700476  -1062.112318
PE25 -21177.378916  -3583.253868  20381.317651   -543.214639
PE26  14809.189028  12706.290313  22251.210009   1463.086051
PE27   3304.995464  16907.719528 -24058.695723    -97.635344
PE30 -17499.307397  20151.864617 -12790.937534   2702.989095
PE31  16504.139648 -20391.458780  13723.446387   -484.399172
PE33  15279.620734  -8753.333493  23790.053953   -466.299172
PE36 -14465.537532 -13633.643554 -21936.414826   -248.221592
PG01  13282.835503 -16778.904095  15233.579322    598.013164
PG02 -13744.203262  -7714.000069 -20718.583645   -626.227412
PG03  22928.298899 -12294.554089  -5160.606555   -253.776256
PG04  13429.263577  -8111.597539 -21433.267926   -203.868461
PG05 -25232.478594   5132.300113  -7020.345839    -51.083929
PG06  -7537.140960 -19608.627016 -16158.546288     55.853152
PG07   5996.396392 -25479.938442  -2072.795665    224.680728
PG08  20639.617250   1617.994861  16798.313952    -32.591621
PG09   2182.299598 -16840.083465 -20482.135236   -358.755353
PG10   4295.290188  14460.913409  21968.585006   -182.240760
PG12 -23731.673118  10659.575369  -5233.446688    -82.733234
PG13 -21146.414910 -10443.155232  12221.222988    171.173930
PG14  -4084.920387 -14772.082738  21687.771517     24.101032
PG15 -20860.558833    973.011301  16225.650865   -128.468884
PG16  24111.069151   1738.154191 -11760.161867   -373.512141
PG17  -9959.884235 -21177.046429  12982.664898    489.171272
PG18  -5028.402085  26032.306678    -99.312249    332.875815
PG19 -16563.609974 -20483.638266   3701.707365     39.459560
PG20 -20228.921603  -2913.244544 -16852.791018    519.660093
PG21  15291.994040  -8477.034858  20541.450388    137.142296
PG22  24506.789087  -9498.838661   3151.248857   -538.591858
PG23  -8550.698308  17137.664301  18350.006660     70.996575
PG24 -14535.753821  12454.684902  17991.505062    207.860568
PG25 -15724.596797  16304.586034 -13907.757692    190.928596
PG26  16321.031215   8384.989847 -19351.541961    122.481844
PG27  22668.456418  10996.709983   8791.473682   -178.102946
PG28 -10220.149259 -12519.556969  21592.935982    520.080673
PG29  -5130.905714  14851.435591 -21449.921750   -396.024275
PG30  -2180.067681 -24696.154801   9264.935599   -462.058276
PG31   9070.602987  17765.564727 -17390.226417   -134.201870
PG32  13880.552298  20447.155577  10077.564470      7.783955
PJ01 -28312.589743  22406.074567  26857.043746   -439.376966
PJ02 -36081.719927  21545.281364    740.716692     -1.546353
PJ03 -19825.416790  23712.823065 -24063.913978     -0.810879
PJ07      0.000000      0.000000      0.000000 999999.999999
PR01 -15734.486601 -11248.392985 -16639.415068     83.828517
PR02 -24967.149797  -4372.066337   2601.212404    489.631088
PR03 -17513.759874   4872.872346  17908.817992     41.208197
PR04   -349.280815  10974.847844  23048.680474    100.100090
PR05  17012.278083  11191.983015  15385.495775     77.122060
PR06  25081.521217   3143.799794  -3521.619509    203.267403
PR07  17085.069640  -5100.970685 -18226.582699    -41.658837
PR08    305.389500 -11071.284217 -22924.024206    -60.377371
PR09  16646.989658  -4966.631237 -18624.467169      8.010189
PR10  18319.033296 -17072.102285  -5040.347737    -73.940441
PR11   9582.957269 -19950.223278  12683.450627     46.398592
PR12  -5077.835525 -10547.736600  22697.557884    253.546008
PR13 -16186.671567   4454.426283  19198.217708    -59.161460
PR14 -18206.020218  17463.566308   3862.451503     67.634835
PR15  -9423.026304  19740.655575 -13099.326156    102.083643
PR16   6456.530357   9510.797585 -22776.262033    -19.568664
PR17  -7084.071794  10782.374409 -21993.457575    449.690271
PR18   1845.353171  22922.335486 -11076.654021     86.897697
PR19   8785.545484  23451.598515   4809.777320   -155.363643
PR20  11995.526857   8804.432444  20729.687783    -54.125751
PR21   6426.325899 -12038.621584  21552.921407   -231.427232
PR22  -2256.391519 -23227.388242  10175.334683   -127.800948
PR23 -11256.804806 -19975.699016 -11197.657343    -11.574127
PR24 -12488.676105  -7732.544094 -20850.295864     54.460198
EOF
